{"type": "FeatureCollection", "features": [ {"type": "Feature", "properties": {"norad_id": 36539, "name": "COSMOS 2251 DEB", "group": "cosmos-2251-debris", "lat": 36.0904727014569, "lon": -130.5167125021573, "alt_km": 684.4327666232757, "timestamp": "2025-12-09T09:46:48.043150+00:00", "meta": {"OBJECT_NAME": "COSMOS 2251 DEB", "OBJECT_ID": "1993-036BCZ", "EPOCH": "2025-12-08T15:01:48.857088", "MEAN_MOTION": 14.59258654, "ECCENTRICITY": 0.0027439, "INCLINATION": 74.024, "RA_OF_ASC_NODE": 63.0267, "ARG_OF_PERICENTER": 208.7649, "MEAN_ANOMALY": 151.2005, "EPHEMERIS_TYPE": 0, "CLASSIFICATION_TYPE": "U", "NORAD_CAT_ID": 36539, "ELEMENT_SET_NO": 999, "REV_AT_EPOCH": 83887, "BSTAR": 0.001238, "MEAN_MOTION_DOT": 5.851e-05, "MEAN_MOTION_DDOT": 0}, "tle": {"line1": "1 36539U 93036BCZ 25342.62625992  .00005851  00000+0  12380-2 0  9998", "line2": "2 36539  74.0240  63.0267 0027439 208.7649 151.2005 14.59258654838877"}}, "geometry": {"type": "Point", "coordinates": [-130.5167125021573, 36.0904727014569]}}, {"type": "Feature", "properties": {"norad_id": 36540, "name": "COSMOS 2251 DEB", "group": "cosmos-2251-debris", "lat": 61.29645510195644, "lon": -24.675847262899975, "alt_km": 700.4925562958861, "timestamp": "2025-12-09T09:46:48.043160+00:00", "meta": {"OBJECT_NAME": "COSMOS 2251 DEB", "OBJECT_ID": "1993-036BDA", "EPOCH": "2025-12-08T23:22:46.979040", "MEAN_MOTION": 14.58425444, "ECCENTRICITY": 0.0015171, "INCLINATION": 74.0278, "RA_OF_ASC_NODE": 187.6868, "ARG_OF_PERICENTER": 257.9646, "MEAN_ANOMALY": 101.9818, "EPHEMERIS_TYPE": 0, "CLASSIFICATION_TYPE": "U", "NORAD_CAT_ID": 36540, "ELEMENT_SET_NO": 999, "REV_AT_EPOCH": 85955, "BSTAR": 0.001195, "MEAN_MOTION_DOT": 5.525e-05, "MEAN_MOTION_DDOT": 0}, "tle": {"line1": "1 36540U 93036BDA 25342.97415485  .00005525  00000+0  11950-2 0  9992", "line2": "2 36540  74.0278 187.6868 0015171 257.9646 101.9818 14.58425444859557"}}, "geometry": {"type": "Point", "coordinates": [-24.675847262899975, 61.29645510195644]}}, {"type": "Feature", "properties": {"norad_id": 36550, "name": "COSMOS 2251 DEB", "group": "cosmos-2251-debris", "lat": -29.005183322002836, "lon": -170.35383873410524, "alt_km": 796.1631079332601, "timestamp": "2025-12-09T09:46:48.043170+00:00", "meta": {"OBJECT_NAME": "COSMOS 2251 DEB", "OBJECT_ID": "1993-036BDL", "EPOCH": "2025-12-05T23:29:18.021984", "MEAN_MOTION": 14.27168955, "ECCENTRICITY": 0.00788112, "INCLINATION": 74.0447, "RA_OF_ASC_NODE": 204.9723, "ARG_OF_PERICENTER": 257.0912, "MEAN_ANOMALY": 102.1425, "EPHEMERIS_TYPE": 0, "CLASSIFICATION_TYPE": "U", "NORAD_CAT_ID": 36550, "ELEMENT_SET_NO": 999, "REV_AT_EPOCH": 84499, "BSTAR": 0.0010210292, "MEAN_MOTION_DOT": 2.55e-05, "MEAN_MOTION_DDOT": 0}, "tle": {"line1": "1 36550U 93036BDL 25339.97868081  .00002550  00000+0  10210-2 0  9996", "line2": "2 36550  74.0447 204.9723 0078811 257.0912 102.1425 14.27168955844992"}}, "geometry": {"type": "Point", "coordinates": [-170.35383873410524, -29.005183322002836]}}, {"type": "Feature", "properties": {"norad_id": 36551, "name": "COSMOS 2251 DEB", "group": "cosmos-2251-debris", "lat": -21.68248674900537, "lon": -151.8341317649411, "alt_km": 586.5441129721276, "timestamp": "2025-12-09T09:46:48.043180+00:00", "meta": {"OBJECT_NAME": "COSMOS 2251 DEB", "OBJECT_ID": "1993-036BDM", "EPOCH": "2025-12-09T02:29:08.765088", "MEAN_MOTION": 15.02381709, "ECCENTRICITY": 0.0051184, "INCLINATION": 73.8873, "RA_OF_ASC_NODE": 22.1914, "ARG_OF_PERICENTER": 331.7408, "MEAN_ANOMALY": 28.1003, "EPHEMERIS_TYPE": 0, "CLASSIFICATION_TYPE": "U", "NORAD_CAT_ID": 36551, "ELEMENT_SET_NO": 999, "REV_AT_EPOCH": 66877, "BSTAR": 0.0015139, "MEAN_MOTION_DOT": 0.00020638, "MEAN_MOTION_DDOT": 0}, "tle": {"line1": "1 36551U 93036BDM 25343.10357367  .00020638  00000+0  15139-2 0  9999", "line2": "2 36551  73.8873  22.1914 0051184 331.7408  28.1003 15.02381709668776"}}, "geometry": {"type": "Point", "coordinates": [-151.8341317649411, -21.68248674900537]}}, {"type": "Feature", "properties": {"norad_id": 36557, "name": "COSMOS 2251 DEB", "group": "cosmos-2251-debris", "lat": 58.366351092087434, "lon": -74.9862112771148, "alt_km": 644.0647023126448, "timestamp": "2025-12-09T09:46:48.043191+00:00", "meta": {"OBJECT_NAME": "COSMOS 2251 DEB", "OBJECT_ID": "1993-036BDT", "EPOCH": "2025-12-08T17:00:11.364768", "MEAN_MOTION": 14.77931999, "ECCENTRICITY": 0.00210313, "INCLINATION": 73.9794, "RA_OF_ASC_NODE": 134.1932, "ARG_OF_PERICENTER": 285.3686, "MEAN_ANOMALY": 74.5165, "EPHEMERIS_TYPE": 0, "CLASSIFICATION_TYPE": "U", "NORAD_CAT_ID": 36557, "ELEMENT_SET_NO": 999, "REV_AT_EPOCH": 33837, "BSTAR": 0.00427946, "MEAN_MOTION_DOT": 0.00031056, "MEAN_MOTION_DDOT": 0}, "tle": {"line1": "1 36557U 93036BDT 25342.70846487  .00031056  00000+0  42795-2 0  9990", "line2": "2 36557  73.9794 134.1932 0021031 285.3686  74.5165 14.77931999338376"}}, "geometry": {"type": "Point", "coordinates": [-74.9862112771148, 58.366351092087434]}}, {"type": "Feature", "properties": {"norad_id": 36558, "name": "COSMOS 2251 DEB", "group": "cosmos-2251-debris", "lat": -29.30467574562458, "lon": 151.6092519188267, "alt_km": 712.3269752488122, "timestamp": "2025-12-09T09:46:48.043201+00:00", "meta": {"OBJECT_NAME": "COSMOS 2251 DEB", "OBJECT_ID": "1993-036BDU", "EPOCH": "2025-12-08T22:22:18.202368", "MEAN_MOTION": 14.55313001, "ECCENTRICITY": 0.0012998, "INCLINATION": 74.0416, "RA_OF_ASC_NODE": 161.7511, "ARG_OF_PERICENTER": 250.2035, "MEAN_ANOMALY": 109.7727, "EPHEMERIS_TYPE": 0, "CLASSIFICATION_TYPE": "U", "NORAD_CAT_ID": 36558, "ELEMENT_SET_NO": 999, "REV_AT_EPOCH": 85213, "BSTAR": 0.0010627, "MEAN_MOTION_DOT": 4.587e-05, "MEAN_MOTION_DDOT": 0}, "tle": {"line1": "1 36558U 93036BDU 25342.93215512  .00004587  00000+0  10627-2 0  9993", "line2": "2 36558  74.0416 161.7511 0012998 250.2035 109.7727 14.55313001852134"}}, "geometry": {"type": "Point", "coordinates": [151.6092519188267, -29.30467574562458]}}, {"type": "Feature", "properties": {"norad_id": 36559, "name": "COSMOS 2251 DEB", "group": "cosmos-2251-debris", "lat": 12.445963621945609, "lon": -168.09503310490854, "alt_km": 995.3490674294635, "timestamp": "2025-12-09T09:46:48.043212+00:00", "meta": {"OBJECT_NAME": "COSMOS 2251 DEB", "OBJECT_ID": "1993-036BDV", "EPOCH": "2025-12-09T02:07:20.280288", "MEAN_MOTION": 13.95143806, "ECCENTRICITY": 0.025996, "INCLINATION": 74.1299, "RA_OF_ASC_NODE": 16.0496, "ARG_OF_PERICENTER": 49.9692, "MEAN_ANOMALY": 312.3935, "EPHEMERIS_TYPE": 0, "CLASSIFICATION_TYPE": "U", "NORAD_CAT_ID": 36559, "ELEMENT_SET_NO": 999, "REV_AT_EPOCH": 81043, "BSTAR": 0.0028022, "MEAN_MOTION_DOT": 4.995e-05, "MEAN_MOTION_DDOT": 0}, "tle": {"line1": "1 36559U 93036BDV 25343.08842917  .00004995  00000+0  28022-2 0  9997", "line2": "2 36559  74.1299  16.0496 0259960  49.9692 312.3935 13.95143806810430"}}, "geometry": {"type": "Point", "coordinates": [-168.09503310490854, 12.445963621945609]}}, {"type": "Feature", "properties": {"norad_id": 36614, "name": "COSMOS 2251 DEB", "group": "cosmos-2251-debris", "lat": -66.32980780714006, "lon": 140.13132960909718, "alt_km": 690.1364651008471, "timestamp": "2025-12-09T09:46:48.043222+00:00", "meta": {"OBJECT_NAME": "COSMOS 2251 DEB", "OBJECT_ID": "1993-036BEC", "EPOCH": "2025-12-07T20:17:29.491872", "MEAN_MOTION": 14.60174339, "ECCENTRICITY": 0.00163717, "INCLINATION": 74.0208, "RA_OF_ASC_NODE": 183.9343, "ARG_OF_PERICENTER": 254.1253, "MEAN_ANOMALY": 105.8109, "EPHEMERIS_TYPE": 0, "CLASSIFICATION_TYPE": "U", "NORAD_CAT_ID": 36614, "ELEMENT_SET_NO": 999, "REV_AT_EPOCH": 65541, "BSTAR": 0.0021436205, "MEAN_MOTION_DOT": 0.00010332, "MEAN_MOTION_DDOT": 0}, "tle": {"line1": "1 36614U 93036BEC 25341.84548023  .00010332  00000+0  21436-2 0  9996", "line2": "2 36614  74.0208 183.9343 0016371 254.1253 105.8109 14.60174339655417"}}, "geometry": {"type": "Point", "coordinates": [140.13132960909718, -66.32980780714006]}}, {"type": "Feature", "properties": {"norad_id": 36622, "name": "COSMOS 2251 DEB", "group": "cosmos-2251-debris", "lat": 18.604857027287352, "lon": -33.52786302144603, "alt_km": 670.5587318788475, "timestamp": "2025-12-09T09:46:48.043233+00:00", "meta": {"OBJECT_NAME": "COSMOS 2251 DEB", "OBJECT_ID": "1993-036BEL", "EPOCH": "2025-12-07T18:00:44.362080", "MEAN_MOTION": 14.76130008, "ECCENTRICITY": 0.00687085, "INCLINATION": 74.0127, "RA_OF_ASC_NODE": 155.2579, "ARG_OF_PERICENTER": 291.6324, "MEAN_ANOMALY": 67.7541, "EPHEMERIS_TYPE": 0, "CLASSIFICATION_TYPE": "U", "NORAD_CAT_ID": 36622, "ELEMENT_SET_NO": 999, "REV_AT_EPOCH": 66676, "BSTAR": 0.0010654006, "MEAN_MOTION_DOT": 7.621e-05, "MEAN_MOTION_DDOT": 0}, "tle": {"line1": "1 36622U 93036BEL 25341.75051345  .00007621  00000+0  10654-2 0  9998", "line2": "2 36622  74.0127 155.2579 0068708 291.6324  67.7541 14.76130008666763"}}, "geometry": {"type": "Point", "coordinates": [-33.52786302144603, 18.604857027287352]}}, {"type": "Feature", "properties": {"norad_id": 36632, "name": "COSMOS 2251 DEB", "group": "cosmos-2251-debris", "lat": -1.593646223034792, "lon": -61.884947675480284, "alt_km": 735.9863269325378, "timestamp": "2025-12-09T09:46:48.043243+00:00", "meta": {"OBJECT_NAME": "COSMOS 2251 DEB", "OBJECT_ID": "1993-036BEW", "EPOCH": "2025-12-08T03:50:26.997216", "MEAN_MOTION": 14.43133085, "ECCENTRICITY": 0.00317609, "INCLINATION": 74.0032, "RA_OF_ASC_NODE": 300.8928, "ARG_OF_PERICENTER": 49.809, "MEAN_ANOMALY": 310.5839, "EPHEMERIS_TYPE": 0, "CLASSIFICATION_TYPE": "U", "NORAD_CAT_ID": 36632, "ELEMENT_SET_NO": 999, "REV_AT_EPOCH": 65149, "BSTAR": 0.0011897932, "MEAN_MOTION_DOT": 3.995e-05, "MEAN_MOTION_DDOT": 0}, "tle": {"line1": "1 36632U 93036BEW 25342.16003469  .00003995  00000+0  11898-2 0  9990", "line2": "2 36632  74.0032 300.8928 0031760  49.8090 310.5839 14.43133085651491"}}, "geometry": {"type": "Point", "coordinates": [-61.884947675480284, -1.593646223034792]}}]}